NORAD_CAT_ID,OBJECT_NAME,OBJECT_TYPE,EPOCH,MEAN_MOTION,ECCENTRICITY,INCLINATION,RA_OF_ASC_NODE,ARG_OF_PERICENTER,MEAN_ANOMALY,BSTAR,MEAN_MOTION_DOT,MEAN_MOTION_DDOT,TLE_LINE0,TLE_LINE1,TLE_LINE2,SEMIMAJOR_AXIS,PERIOD,APOGEE,PERIGEE,DECAYED
52577.0,STARLINK-3836,PAYLOAD,2022-07-31 14:00:01,15.08841562,0.0001955,53.2195,286.8391,49.5893,153.3102,0.00052676,8.106e-05,0.0,0 STARLINK-3836,1 52577U 22051AT  22212.58334491  .00008106  00000-0  52676-3 0  9996,2 52577  53.2195 286.8391 0001955  49.5893 153.3102 15.08841562  1307,6917.876,95.437,541.0930000000002,538.388,0.0
52577.0,STARLINK-3836,PAYLOAD,2022-07-31 22:00:00,15.08848708,0.000178,53.2195,285.3415,49.9578,164.5464,-0.0024690999999999,-0.00039379,0.0,0 STARLINK-3836,1 52577U 22051AT  22212.91667824 -.00039379  00000-0 -24691-2 0  9995,2 52577  53.2195 285.3415 0001780  49.9578 164.5464 15.08848708  1302,6917.854,95.437,540.95,538.487,0.0
52577.0,STARLINK-3836,PAYLOAD,2022-08-01 14:00:01,15.08817544,0.0001947,53.2196,282.3502,47.4257,190.2611,0.0021363,0.00033854,0.0,0 STARLINK-3836,1 52577U 22051AT  22213.58334491  .00033854  00000-0  21363-2 0  9993,2 52577  53.2196 282.3502 0001947  47.4257 190.2611 15.08817544 12765,6917.949000000001,95.439,541.161,538.467,0.0
52577.0,STARLINK-3836,PAYLOAD,2022-08-01 22:00:00,15.08846043,0.0001789,53.2196,280.8524,49.9068,199.3633,-0.0011205,-0.0001808,0.0,0 STARLINK-3836,1 52577U 22051AT  22213.91667824 -.00018080  00000-0 -11205-2 0  9999,2 52577  53.2196 280.8524 0001789  49.9068 199.3633 15.08846043  1301,6917.861999999999,95.437,540.965,538.489,0.0
52577.0,STARLINK-3836,PAYLOAD,2022-08-02 06:00:02,15.08852797,0.0001774999999999,53.2198,279.356,53.9224,207.0005,-0.00048716,-8.036e-05,0.0,0 STARLINK-3836,1 52577U 22051AT  22214.25002315 -.00008036  00000-0 -48716-3 0  9993,2 52577  53.2198 279.3560 0001775  53.9224 207.0005 15.08852797 12866,6917.840999999999,95.437,540.934,538.4780000000002,0.0
52577.0,STARLINK-3836,PAYLOAD,2022-08-02 14:00:01,15.08825266,0.0001954,53.2196,277.8612,47.484,224.9867,0.0022905,0.00036339,0.0,0 STARLINK-3836,1 52577U 22051AT  22214.58334491  .00036339  00000-0  22905-2 0  9998,2 52577  53.2196 277.8612 0001954  47.4840 224.9867 15.08825266  1308,6917.925,95.438,541.1419999999998,538.439,0.0
52577.0,STARLINK-3836,PAYLOAD,2022-08-03 14:00:01,15.08806097,0.0002020999999999,53.2195,273.3722,50.1807,257.0897,0.0024267,0.00038509,0.0,0 STARLINK-3836,1 52577U 22051AT  22215.58334491  .00038509  00000-0  24267-2 0  9993,2 52577  53.2195 273.3722 0002021  50.1807 257.0897 15.08806097 13067,6917.984,95.44,541.247,538.451,0.0
52577.0,STARLINK-3836,PAYLOAD,2022-08-03 22:00:01,15.08825472,0.0001857,53.2194,271.8742,54.291,264.6173,-6.0266e-05,-1.247e-05,0.0,0 STARLINK-3836,1 52577U 22051AT  22215.91668981 -.00001247  00000-0 -60266-4 0  9996,2 52577  53.2194 271.8742 0001857  54.2910 264.6173 15.08825472  1300,6917.925,95.438,541.0740000000002,538.505,0.0
52577.0,STARLINK-3836,PAYLOAD,2022-08-04 06:00:00,15.08846483,0.0001858,53.2195,270.3782,56.6379,273.7797,-0.0013478,-0.00021678,0.0,0 STARLINK-3836,1 52577U 22051AT  22216.25001157 -.00021678  00000-0 -13478-2 0  9991,2 52577  53.2195 270.3782 0001858  56.6379 273.7797 15.08846483 13160,6917.861,95.437,541.011,538.44,0.0
52577.0,STARLINK-3836,PAYLOAD,2022-08-04 14:00:01,15.08812297,0.0002005,53.2191,268.8833,51.0664,290.9497,0.0025178,0.0003998,0.0,0 STARLINK-3836,1 52577U 22051AT  22216.58334491  .00039980  00000-0  25178-2 0  9990,2 52577  53.2191 268.8833 0002005  51.0664 290.9497 15.08812297  1303,6917.965,95.439,541.217,538.443,0.0
52577.0,STARLINK-3836,PAYLOAD,2022-08-04 22:00:00,15.088263,0.0001855,53.219,267.3854,55.797,297.803,0.00054127,8.334e-05,0.0,0 STARLINK-3836,1 52577U 22051AT  22216.91667824  .00008334  00000-0  54127-3 0  9992,2 52577  53.2190 267.3854 0001855  55.7970 297.8030 15.08826300  1301,6917.922,95.438,541.071,538.504,0.0
52577.0,STARLINK-3836,PAYLOAD,2022-08-05 06:00:02,15.08854349,0.0001892,53.2191,265.8894,57.1537,308.0872,-0.0016504999999999,-0.0002647,0.0,0 STARLINK-3836,1 52577U 22051AT  22217.25002315 -.00026470  00000-0 -16505-2 0  9998,2 52577  53.2191 265.8894 0001892  57.1537 308.0872 15.08854349 13312,6917.837,95.437,541.01,538.393,0.0
52577.0,STARLINK-3836,PAYLOAD,2022-08-05 14:00:01,15.08818493,0.0002017,53.2188,264.3944,51.4578,325.3877,0.0026041999999999,0.00041377,0.0,0 STARLINK-3836,1 52577U 22051AT  22217.58335648  .00041377  00000-0  26042-2 0  9990,2 52577  53.2188 264.3944 0002017  51.4578 325.3877 15.08818493  1303,6917.946,95.439,541.206,538.4159999999998,0.0
52577.0,STARLINK-3836,PAYLOAD,2022-08-05 22:00:00,15.08829437,0.000188,53.2188,262.8964,56.3054,332.0713,0.0011727,0.00018419,0.0,0 STARLINK-3836,1 52577U 22051AT  22217.91667824  .00018419  00000-0  11727-2 0  9996,2 52577  53.2188 262.8964 0001880  56.3054 332.0713 15.08829437  1302,6917.913000000001,95.438,541.078,538.477,0.0
52577.0,STARLINK-3836,PAYLOAD,2022-08-06 14:00:01,15.08825834,0.0002066999999999,53.2187,259.9056,51.1991,0.3724,0.002591,0.00041173,0.0,0 STARLINK-3836,1 52577U 22051AT  22218.58334491  .00041173  00000-0  25910-2 0  9993,2 52577  53.2187 259.9056 0002067  51.1991   0.3724 15.08825834  1305,6917.924,95.438,541.219,538.359,0.0
52577.0,STARLINK-3836,PAYLOAD,2022-08-06 20:07:55,15.08843575,0.0002013,53.2201,258.7574,55.7119,304.4063,0.00011749,1.582e-05,0.0,0 STARLINK-3836,1 52577U 22051AT  22218.83883585  .00001582  00000-0  11749-3 0  9990,2 52577  53.2201 258.7574 0002013  55.7119 304.4063 15.08843575 13485,6917.869000000002,95.437,541.127,538.342,0.0
52577.0,STARLINK-3836,PAYLOAD,2022-08-06 22:00:00,15.08833613,0.0001914,53.2188,258.4075,55.7496,7.4242,0.0013867,0.00021846,0.0,0 STARLINK-3836,1 52577U 22051AT  22218.91667824  .00021846  00000-0  13867-2 0  9992,2 52577  53.2188 258.4075 0001914  55.7496   7.4242 15.08833613 13569,6917.9,95.438,541.089,538.441,0.0
52577.0,STARLINK-3836,PAYLOAD,2022-08-07 12:01:47,15.08838572,0.0002076,53.22,255.784,55.2838,304.8349,3.0039e-05,1.9e-06,0.0,0 STARLINK-3836,1 52577U 22051AT  22219.50124088  .00000190  00000-0  30039-4 0  9999,2 52577  53.2200 255.7840 0002076  55.2838 304.8349 15.08838572 13650,6917.885,95.438,541.186,538.314,0.0
52577.0,STARLINK-3836,PAYLOAD,2022-08-07 19:58:42,15.08838595,0.0002098,53.2201,254.2974,55.8263,304.2928,2.3315e-05,8.3e-07,0.0,0 STARLINK-3836,1 52577U 22051AT  22219.83244169  .00000083  00000-0  23315-4 0  9998,2 52577  53.2201 254.2974 0002098  55.8263 304.2928 15.08838595 13635,6917.885,95.438,541.201,538.298,0.0
52577.0,STARLINK-3836,PAYLOAD,2022-08-08 14:00:01,15.08828517,0.0002142,53.2187,250.9279,49.0924,72.0993,0.0023325,0.00037018,0.0,0 STARLINK-3836,1 52577U 22051AT  22220.58335648  .00037018  00000-0  23325-2 0  9992,2 52577  53.2187 250.9279 0002142  49.0924  72.0993 15.08828517  1304,6917.915,95.438,541.262,538.299,0.0
52577.0,STARLINK-3836,PAYLOAD,2022-08-08 22:00:00,15.08831756,0.0001966,53.219,249.43,54.0576,78.6775,0.0022177,0.00035176,0.0,0 STARLINK-3836,1 52577U 22051AT  22220.91667824  .00035176  00000-0  22177-2 0  9990,2 52577  53.2190 249.4300 0001966  54.0576  78.6775 15.08831756  1307,6917.906,95.438,541.131,538.411,0.0
52577.0,STARLINK-3836,PAYLOAD,2022-08-09 06:00:00,15.08865788,0.0002041,53.219,247.9345,52.9078,91.4246,-0.0038185,-0.00060593,0.0,0 STARLINK-3836,1 52577U 22051AT  22221.25001157 -.00060593  00000-0 -38185-2 0  9998,2 52577  53.2190 247.9345 0002041  52.9078  91.4246 15.08865788 13916,6917.802,95.436,541.078,538.255,0.0
52577.0,STARLINK-3836,PAYLOAD,2022-08-09 14:00:01,15.08819639,0.0002106,53.2186,246.439,47.7481,108.1813,0.0016199,0.00025573,0.0,0 STARLINK-3836,1 52577U 22051AT  22221.58334491  .00025573  00000-0  16199-2 0  9992,2 52577  53.2186 246.4390 0002106  47.7481 108.1813 15.08819639  1307,6917.943,95.439,541.265,538.351,0.0
52577.0,STARLINK-3836,PAYLOAD,2022-08-09 22:00:00,15.08812058,0.0001924,53.2187,244.9411,53.2648,114.2534,0.0024812,0.00039391,0.0,0 STARLINK-3836,1 52577U 22051AT  22221.91667824  .00039391  00000-0  24812-2 0  9992,2 52577  53.2187 244.9411 0001924  53.2648 114.2534 15.08812058 14028,6917.965999999999,95.439,541.1619999999998,538.5,0.0
52577.0,STARLINK-3836,PAYLOAD,2022-08-10 14:00:01,15.08835449,0.0002118,53.2183,241.9501,48.9259,141.7641,0.00085495,0.00013343,0.0,0 STARLINK-3836,1 52577U 22051AT  22222.58334491  .00013343  00000-0  85495-3 0  9991,2 52577  53.2183 241.9501 0002118  48.9259 141.7641 15.08835449  1306,6917.894,95.438,541.225,538.294,0.0
52577.0,STARLINK-3836,PAYLOAD,2022-08-10 17:07:18,15.08856083,0.0002038,53.2183,241.3655,51.5835,125.9998,-0.0021475,-0.00034319,0.0,0 STARLINK-3836,1 52577U 22051AT  22222.71341435 -.00034319  00000-0 -21475-2 0  9997,2 52577  53.2183 241.3655 0002038  51.5835 125.9998 15.08856083 14143,6917.831,95.437,541.106,538.286,0.0
52577.0,STARLINK-3836,PAYLOAD,2022-08-10 22:00:00,15.088200400000002,0.0001938,53.2183,240.4522,54.6836,147.6075,0.0024924,0.0003958,0.0,0 STARLINK-3836,1 52577U 22051AT  22222.91667824  .00039580  00000-0  24924-2 0  9997,2 52577  53.2183 240.4522 0001938  54.6836 147.6075 15.08820040  1304,6917.941,95.439,541.1469999999998,538.466,0.0
52577.0,STARLINK-3836,PAYLOAD,2022-08-11 06:00:02,15.08855486,0.0002052,53.2184,238.9571,53.3796,160.5634,-0.0015345,-0.00024638,0.0,0 STARLINK-3836,1 52577U 22051AT  22223.25002315 -.00024638  00000-0 -15345-2 0  9990,2 52577  53.2184 238.9571 0002052  53.3796 160.5634 15.08855486 14222,6917.833000000001,95.437,541.118,538.279,0.0
52577.0,STARLINK-3836,PAYLOAD,2022-08-11 14:00:01,15.08854649,0.0002084,53.2178,237.4611,50.2214,175.2572,-0.0012488,-0.00020116,0.0,0 STARLINK-3836,1 52577U 22051AT  22223.58334491 -.00020116  00000-0 -12488-2 0  9991,2 52577  53.2178 237.4611 0002084  50.2214 175.2572 15.08854649  1309,6917.8359999999975,95.437,541.1419999999998,538.259,0.0
